[{"OBJECT_NAME":"STARLINK-5615","OBJECT_ID":"2023-014AL","EPOCH":"2026-03-09T10:31:03.184320","MEAN_MOTION":14.9832781,"ECCENTRICITY":0.00029537,"INCLINATION":69.9995,"RA_OF_ASC_NODE":85.1293,"ARG_OF_PERICENTER":271.2407,"MEAN_ANOMALY":88.8414,"EPHEMERIS_TYPE":0,"CLASSIFICATION_TYPE":"U","NORAD_CAT_ID":55425,"ELEMENT_SET_NO":999,"REV_AT_EPOCH":17152,"BSTAR":-2.8319539e-5,"MEAN_MOTION_DOT":-4.31e-6,"MEAN_MOTION_DDOT":0},{"OBJECT_NAME":"SITRO-AIS 14","OBJECT_ID":"2024-199T","EPOCH":"2026-03-09T22:54:28.226304","MEAN_MOTION":14.97122201,"ECCENTRICITY":0.00071847,"INCLINATION":97.3313,"RA_OF_ASC_NODE":274.5243,"ARG_OF_PERICENTER":48.7211,"MEAN_ANOMALY":311.463,"EPHEMERIS_TYPE":0,"CLASSIFICATION_TYPE":"U","NORAD_CAT_ID":61752,"ELEMENT_SET_NO":999,"REV_AT_EPOCH":12027,"BSTAR":0.00031190269,"MEAN_MOTION_DOT":3.549e-5,"MEAN_MOTION_DDOT":0}]
